[
  {
    "OBJECT_NAME": "STARLINK-1008",
    "OBJECT_ID": "19074B",
    "EPOCH": "2025-11-11T06:37:01.870176",
    "MEAN_MOTION": 15.06411912,
    "ECCENTRICITY": 0.000192,
    "INCLINATION": 53.0546,
    "RA_OF_ASC_NODE": 358.189,
    "ARG_OF_PERICENTER": 119.9812,
    "MEAN_ANOMALY": 240.1368,
    "EPHEMERIS_TYPE": 0,
    "CLASSIFICATION_TYPE": "U",
    "NORAD_CAT_ID": 44714,
    "ELEMENT_SET_NO": 999,
    "REV_AT_EPOCH": 33090,
    "BSTAR": 0.0,
    "MEAN_MOTION_DOT": -6.69e-06,
    "MEAN_MOTION_DDOT": 0.0,
    "TLE_LINE1": "1 44714U 19074B   25315.27571609 -.00000669  00000+0 -25999-4 0  9994",
    "TLE_LINE2": "2 44714  53.0546 358.1890 0001920 119.9812 240.1368 15.06411912330901",
    "COMMENT": "Grouped by shell and plane from TLE"
  },
  {
    "OBJECT_NAME": "STARLINK-1017",
    "OBJECT_ID": "19074L",
    "EPOCH": "2025-11-11T07:06:50.813280",
    "MEAN_MOTION": 15.15764647,
    "ECCENTRICITY": 0.0002612,
    "INCLINATION": 53.0508,
    "RA_OF_ASC_NODE": 354.0225,
    "ARG_OF_PERICENTER": 335.2297,
    "MEAN_ANOMALY": 24.857,
    "EPHEMERIS_TYPE": 0,
    "CLASSIFICATION_TYPE": "U",
    "NORAD_CAT_ID": 44723,
    "ELEMENT_SET_NO": 999,
    "REV_AT_EPOCH": 33096,
    "BSTAR": 0.002862,
    "MEAN_MOTION_DOT": 0.00055379,
    "MEAN_MOTION_DDOT": 0.0,
    "TLE_LINE1": "1 44723U 19074L   25315.29642145  .00055379  00000+0  28620-2 0  9998",
    "TLE_LINE2": "2 44723  53.0508 354.0225 0002612 335.2297  24.8570 15.15764647330969",
    "COMMENT": "Grouped by shell and plane from TLE"
  },
  {
    "OBJECT_NAME": "STARLINK-1048",
    "OBJECT_ID": "19074AS",
    "EPOCH": "2025-11-11T07:08:53.221344",
    "MEAN_MOTION": 15.0639566,
    "ECCENTRICITY": 0.0001562,
    "INCLINATION": 53.0549,
    "RA_OF_ASC_NODE": 358.0995,
    "ARG_OF_PERICENTER": 92.4522,
    "MEAN_ANOMALY": 267.6646,
    "EPHEMERIS_TYPE": 0,
    "CLASSIFICATION_TYPE": "U",
    "NORAD_CAT_ID": 44753,
    "ELEMENT_SET_NO": 999,
    "REV_AT_EPOCH": 33090,
    "BSTAR": 4.3763e-05,
    "MEAN_MOTION_DOT": 3.7e-06,
    "MEAN_MOTION_DDOT": 0.0,
    "TLE_LINE1": "1 44753U 19074AS  25315.29783821  .00000370  00000+0  43763-4 0  9996",
    "TLE_LINE2": "2 44753  53.0549 358.0995 0001562  92.4522 267.6646 15.06395660330901",
    "COMMENT": "Grouped by shell and plane from TLE"
  },
  {
    "OBJECT_NAME": "STARLINK-1470",
    "OBJECT_ID": "20038AU",
    "EPOCH": "2025-11-11T07:04:25.279392",
    "MEAN_MOTION": 15.18544703,
    "ECCENTRICITY": 0.000355,
    "INCLINATION": 53.0517,
    "RA_OF_ASC_NODE": 359.6951,
    "ARG_OF_PERICENTER": 305.4425,
    "MEAN_ANOMALY": 54.6237,
    "EPHEMERIS_TYPE": 0,
    "CLASSIFICATION_TYPE": "U",
    "NORAD_CAT_ID": 45772,
    "ELEMENT_SET_NO": 999,
    "REV_AT_EPOCH": 29903,
    "BSTAR": 0.0027707,
    "MEAN_MOTION_DOT": 0.00058085,
    "MEAN_MOTION_DDOT": 0.0,
    "TLE_LINE1": "1 45772U 20038AU  25315.29473703  .00058085  00000+0  27707-2 0  9999",
    "TLE_LINE2": "2 45772  53.0517 359.6951 0003550 305.4425  54.6237 15.18544703299030",
    "COMMENT": "Grouped by shell and plane from TLE"
  },
  {
    "OBJECT_NAME": "STARLINK-2461",
    "OBJECT_ID": "21040A",
    "EPOCH": "2025-11-11T07:03:34.866720",
    "MEAN_MOTION": 15.06396026,
    "ECCENTRICITY": 0.0001484,
    "INCLINATION": 53.0557,
    "RA_OF_ASC_NODE": 358.1156,
    "ARG_OF_PERICENTER": 95.4338,
    "MEAN_ANOMALY": 264.682,
    "EPHEMERIS_TYPE": 0,
    "CLASSIFICATION_TYPE": "U",
    "NORAD_CAT_ID": 48428,
    "ELEMENT_SET_NO": 999,
    "REV_AT_EPOCH": 24871,
    "BSTAR": 0.00014508,
    "MEAN_MOTION_DOT": 1.88e-05,
    "MEAN_MOTION_DDOT": 0.0,
    "TLE_LINE1": "1 48428U 21040A   25315.29415355  .00001880  00000+0  14508-3 0  9990",
    "TLE_LINE2": "2 48428  53.0557 358.1156 0001484  95.4338 264.6820 15.06396026248719",
    "COMMENT": "Grouped by shell and plane from TLE"
  },
  {
    "OBJECT_NAME": "STARLINK-2639",
    "OBJECT_ID": "21040J",
    "EPOCH": "2025-11-11T06:19:07.478400",
    "MEAN_MOTION": 15.064003,
    "ECCENTRICITY": 0.0001524,
    "INCLINATION": 53.0556,
    "RA_OF_ASC_NODE": 353.2533,
    "ARG_OF_PERICENTER": 97.6758,
    "MEAN_ANOMALY": 262.4404,
    "EPHEMERIS_TYPE": 0,
    "CLASSIFICATION_TYPE": "U",
    "NORAD_CAT_ID": 48436,
    "ELEMENT_SET_NO": 999,
    "REV_AT_EPOCH": 24877,
    "BSTAR": 7.545500000000002e-05,
    "MEAN_MOTION_DOT": 8.43e-06,
    "MEAN_MOTION_DDOT": 0.0,
    "TLE_LINE1": "1 48436U 21040J   25315.26328100  .00000843  00000+0  75455-4 0  9994",
    "TLE_LINE2": "2 48436  53.0556 353.2533 0001524  97.6758 262.4404 15.06400300248778",
    "COMMENT": "Grouped by shell and plane from TLE"
  },
  {
    "OBJECT_NAME": "STARLINK-2640",
    "OBJECT_ID": "21040L",
    "EPOCH": "2025-11-11T06:51:01.366272",
    "MEAN_MOTION": 15.06390038,
    "ECCENTRICITY": 0.0001407,
    "INCLINATION": 53.0556,
    "RA_OF_ASC_NODE": 353.4225,
    "ARG_OF_PERICENTER": 88.1762,
    "MEAN_ANOMALY": 271.9389,
    "EPHEMERIS_TYPE": 0,
    "CLASSIFICATION_TYPE": "U",
    "NORAD_CAT_ID": 48438,
    "ELEMENT_SET_NO": 999,
    "REV_AT_EPOCH": 24877,
    "BSTAR": 3.4192e-05,
    "MEAN_MOTION_DOT": 2.28e-06,
    "MEAN_MOTION_DDOT": 0.0,
    "TLE_LINE1": "1 48438U 21040L   25315.28543248  .00000228  00000+0  34192-4 0  9990",
    "TLE_LINE2": "2 48438  53.0556 353.4225 0001407  88.1762 271.9389 15.06390038248773",
    "COMMENT": "Grouped by shell and plane from TLE"
  },
  {
    "OBJECT_NAME": "STARLINK-2583",
    "OBJECT_ID": "21040M",
    "EPOCH": "2025-11-11T06:08:30.294816",
    "MEAN_MOTION": 15.06406647,
    "ECCENTRICITY": 0.0001291,
    "INCLINATION": 53.0549,
    "RA_OF_ASC_NODE": 353.2891,
    "ARG_OF_PERICENTER": 85.6096,
    "MEAN_ANOMALY": 274.504,
    "EPHEMERIS_TYPE": 0,
    "CLASSIFICATION_TYPE": "U",
    "NORAD_CAT_ID": 48439,
    "ELEMENT_SET_NO": 999,
    "REV_AT_EPOCH": 24877,
    "BSTAR": 0.00026116,
    "MEAN_MOTION_DOT": 3.611e-05,
    "MEAN_MOTION_DDOT": 0.0,
    "TLE_LINE1": "1 48439U 21040M   25315.25590619  .00003611  00000+0  26116-3 0  9997",
    "TLE_LINE2": "2 48439  53.0549 353.2891 0001291  85.6096 274.5040 15.06406647248773",
    "COMMENT": "Grouped by shell and plane from TLE"
  },
  {
    "OBJECT_NAME": "STARLINK-2682",
    "OBJECT_ID": "21040N",
    "EPOCH": "2025-11-11T02:52:07.313376",
    "MEAN_MOTION": 15.06408451,
    "ECCENTRICITY": 0.0001459,
    "INCLINATION": 53.0535,
    "RA_OF_ASC_NODE": 353.8985,
    "ARG_OF_PERICENTER": 84.1519,
    "MEAN_ANOMALY": 275.9636,
    "EPHEMERIS_TYPE": 0,
    "CLASSIFICATION_TYPE": "U",
    "NORAD_CAT_ID": 48440,
    "ELEMENT_SET_NO": 999,
    "REV_AT_EPOCH": 24875,
    "BSTAR": 0.00018876,
    "MEAN_MOTION_DOT": 2.532e-05,
    "MEAN_MOTION_DDOT": 0.0,
    "TLE_LINE1": "1 48440U 21040N   25315.11952909  .00002532  00000+0  18876-3 0  9993",
    "TLE_LINE2": "2 48440  53.0535 353.8985 0001459  84.1519 275.9636 15.06408451248759",
    "COMMENT": "Grouped by shell and plane from TLE"
  },
  {
    "OBJECT_NAME": "STARLINK-2702",
    "OBJECT_ID": "21040P",
    "EPOCH": "2025-11-11T05:57:53.158752",
    "MEAN_MOTION": 15.06396916,
    "ECCENTRICITY": 0.0001301,
    "INCLINATION": 53.0548,
    "RA_OF_ASC_NODE": 353.3198,
    "ARG_OF_PERICENTER": 88.679,
    "MEAN_ANOMALY": 271.4348,
    "EPHEMERIS_TYPE": 0,
    "CLASSIFICATION_TYPE": "U",
    "NORAD_CAT_ID": 48441,
    "ELEMENT_SET_NO": 999,
    "REV_AT_EPOCH": 24877,
    "BSTAR": 0.0,
    "MEAN_MOTION_DOT": -5.05e-06,
    "MEAN_MOTION_DDOT": 0.0,
    "TLE_LINE1": "1 48441U 21040P   25315.24853193 -.00000505  00000+0 -14996-4 0  9993",
    "TLE_LINE2": "2 48441  53.0548 353.3198 0001301  88.6790 271.4348 15.06396916248776",
    "COMMENT": "Grouped by shell and plane from TLE"
  },
  {
    "OBJECT_NAME": "STARLINK-2644",
    "OBJECT_ID": "21040Q",
    "EPOCH": "2025-11-11T07:28:07.613472",
    "MEAN_MOTION": 15.06391553,
    "ECCENTRICITY": 0.0001402,
    "INCLINATION": 53.0543,
    "RA_OF_ASC_NODE": 353.0409,
    "ARG_OF_PERICENTER": 89.8846,
    "MEAN_ANOMALY": 270.2304,
    "EPHEMERIS_TYPE": 0,
    "CLASSIFICATION_TYPE": "U",
    "NORAD_CAT_ID": 48442,
    "ELEMENT_SET_NO": 999,
    "REV_AT_EPOCH": 24878,
    "BSTAR": 4.9184e-05,
    "MEAN_MOTION_DOT": 4.51e-06,
    "MEAN_MOTION_DDOT": 0.0,
    "TLE_LINE1": "1 48442U 21040Q   25315.31119923  .00000451  00000+0  49184-4 0  9993",
    "TLE_LINE2": "2 48442  53.0543 353.0409 0001402  89.8846 270.2304 15.06391553248783",
    "COMMENT": "Grouped by shell and plane from TLE"
  },
  {
    "OBJECT_NAME": "STARLINK-2663",
    "OBJECT_ID": "21040R",
    "EPOCH": "2025-11-11T07:22:49.073952",
    "MEAN_MOTION": 15.06401873,
    "ECCENTRICITY": 0.0001548,
    "INCLINATION": 53.0548,
    "RA_OF_ASC_NODE": 353.0598,
    "ARG_OF_PERICENTER": 93.1187,
    "MEAN_ANOMALY": 266.9979,
    "EPHEMERIS_TYPE": 0,
    "CLASSIFICATION_TYPE": "U",
    "NORAD_CAT_ID": 48443,
    "ELEMENT_SET_NO": 999,
    "REV_AT_EPOCH": 24878,
    "BSTAR": 2.327e-05,
    "MEAN_MOTION_DOT": 6.5e-07,
    "MEAN_MOTION_DDOT": 0.0,
    "TLE_LINE1": "1 48443U 21040R   25315.30751243  .00000065  00000+0  23270-4 0  9999",
    "TLE_LINE2": "2 48443  53.0548 353.0598 0001548  93.1187 266.9979 15.06401873248782",
    "COMMENT": "Grouped by shell and plane from TLE"
  },
  {
    "OBJECT_NAME": "STARLINK-2645",
    "OBJECT_ID": "21040S",
    "EPOCH": "2025-11-11T07:17:30.806592",
    "MEAN_MOTION": 15.06401304,
    "ECCENTRICITY": 0.0002262,
    "INCLINATION": 53.055,
    "RA_OF_ASC_NODE": 353.0712,
    "ARG_OF_PERICENTER": 83.4983,
    "MEAN_ANOMALY": 276.6264,
    "EPHEMERIS_TYPE": 0,
    "CLASSIFICATION_TYPE": "U",
    "NORAD_CAT_ID": 48444,
    "ELEMENT_SET_NO": 999,
    "REV_AT_EPOCH": 24878,
    "BSTAR": 0.00026712999999999997,
    "MEAN_MOTION_DOT": 3.7e-05,
    "MEAN_MOTION_DDOT": 0.0,
    "TLE_LINE1": "1 48444U 21040S   25315.30382878  .00003700  00000+0  26713-3 0  9997",
    "TLE_LINE2": "2 48444  53.0550 353.0712 0002262  83.4983 276.6264 15.06401304248788",
    "COMMENT": "Grouped by shell and plane from TLE"
  }
]